QIANFAN-9               
1 60387U 24140J   25330.83465073  .00000092  00000+0  12324-3 0  9999
2 60387  88.9748 300.9835 0014380 241.6541 118.3161 13.50978321 65187
QIANFAN-10              
1 60388U 24140K   25330.83884242  .00000091  00000+0  12245-3 0  9994
2 60388  88.9757 300.3286 0013235 215.8583 144.1681 13.50978974 65312
QIANFAN-11              
1 60389U 24140L   25330.80182377  .00000090  00000+0  12114-3 0  9996
2 60389  88.9683 300.9316 0012415 241.0526 118.9381 13.50975161 64969
QIANFAN-12              
1 60390U 24140M   25330.82232948  .00000084  00000+0  11119-3 0  9997
2 60390  88.9727 300.9660 0011161 250.3964 109.5983 13.50975879 65093
QIANFAN-13              
1 60391U 24140N   25330.79353308  .00000095  00000+0  12813-3 0  9992
2 60391  88.9739 301.0668 0010973 253.6046 106.3900 13.50976362 65119
QIANFAN-14              
1 60392U 24140P   25330.81811932  .00000082  00000+0  10786-3 0  9991
2 60392  88.9718 300.9654 0014660 253.6720 106.2819 13.50976014 65129
QIANFAN-15              
1 60393U 24140Q   25330.82639409  .00000088  00000+0  11746-3 0  9993
2 60393  88.9741 300.9172 0010566 237.0708 122.9427 13.50974744 65111
QIANFAN-16              
1 60394U 24140R   25330.81419631  .00000093  00000+0  12523-3 0  9996
2 60394  88.9744 301.0381 0012582 258.1269 101.8471 13.50974935 65022
